{
    "links": {
        "self": "http://www.neowsapp.com/rest/v1/neo/3760220?api_key=iIulBulltgU6a56xZRHN4H3l9WmuAYTsLGpBGhQ2"
    },
    "id": "3760220",
    "neo_reference_id": "3760220",
    "name": "(2016 TU)",
    "designation": "2016 TU",
    "nasa_jpl_url": "http://ssd.jpl.nasa.gov/sbdb.cgi?sstr=3760220",
    "absolute_magnitude_h": 27.2,
    "estimated_diameter": {
        "kilometers": {
            "estimated_diameter_min": 0.0096506147,
            "estimated_diameter_max": 0.0215794305
        },
        "meters": {
            "estimated_diameter_min": 9.6506146958,
            "estimated_diameter_max": 21.5794304844
        },
        "miles": {
            "estimated_diameter_min": 0.0059966121,
            "estimated_diameter_max": 0.0134088323
        },
        "feet": {
            "estimated_diameter_min": 31.6621227185,
            "estimated_diameter_max": 70.7986587106
        }
    },
    "is_potentially_hazardous_asteroid": false,
    "close_approach_data": [
        {
            "close_approach_date": "2016-10-03",
            "close_approach_date_full": "2016-Oct-03 21:08",
            "epoch_date_close_approach": 1475528880000,
            "relative_velocity": {
                "kilometers_per_second": "17.9785573305",
                "kilometers_per_hour": "64722.8063896578",
                "miles_per_hour": "40216.2348925071"
            },
            "miss_distance": {
                "astronomical": "0.012043075",
                "lunar": "4.684756175",
                "kilometers": "1801618.36825025",
                "miles": "1119473.74334345"
            },
            "orbiting_body": "Earth"
        },
        {
            "close_approach_date": "2019-03-21",
            "close_approach_date_full": "2019-Mar-21 03:44",
            "epoch_date_close_approach": 1553139840000,
            "relative_velocity": {
                "kilometers_per_second": "21.0550046856",
                "kilometers_per_hour": "75798.0168680614",
                "miles_per_hour": "47097.9399811573"
            },
            "miss_distance": {
                "astronomical": "0.1351245005",
                "lunar": "52.5634306945",
                "kilometers": "20214337.459613935",
                "miles": "12560606.854324903"
            },
            "orbiting_body": "Earth"
        }
    ],
    "orbital_data": {
        "orbit_id": "4",
        "orbit_determination_date": "2017-04-06 08:23:26",
        "first_observation_date": "2016-10-02",
        "last_observation_date": "2016-10-04",
        "data_arc_in_days": 2,
        "observations_used": 50,
        "orbit_uncertainty": "8",
        "minimum_orbit_intersection": ".0111055",
        "jupiter_tisserand_invariant": "3.974",
        "epoch_osculation": "2457664.5",
        "eccentricity": ".5876236460651267",
        "semi_major_axis": "1.684479379048605",
        "inclination": "16.01541671924379",
        "ascending_node_longitude": "8.633828504647607",
        "orbital_period": "798.5405510084548",
        "perihelion_distance": ".6946394646105429",
        "perihelion_argument": "82.5613440057225",
        "aphelion_distance": "2.674319293486666",
        "perihelion_time": "2457714.610780917778",
        "mean_anomaly": "337.408935454038",
        "mean_motion": ".4508224404450919",
        "equinox": "J2000",
        "orbit_class": {
            "orbit_class_type": "APO",
            "orbit_class_description": "Near-Earth asteroid orbits which cross the Earth’s orbit similar to that of 1862 Apollo",
            "orbit_class_range": "a (semi-major axis) > 1.0 AU; q (perihelion) < 1.017 AU"
        }
    },
    "is_sentry_object": false
}